[{"OBJECT_NAME":"NORSAT 3","OBJECT_ID":"2021-034E","EPOCH":"2026-03-09T22:23:32.431200","MEAN_MOTION":15.04338407,"ECCENTRICITY":0.0005858,"INCLINATION":97.5427,"RA_OF_ASC_NODE":128.5959,"ARG_OF_PERICENTER":280.8366,"MEAN_ANOMALY":79.2201,"EPHEMERIS_TYPE":0,"CLASSIFICATION_TYPE":"U","NORAD_CAT_ID":48272,"ELEMENT_SET_NO":999,"REV_AT_EPOCH":26491,"BSTAR":0.00030361478,"MEAN_MOTION_DOT":4.174e-5,"MEAN_MOTION_DDOT":0},{"OBJECT_NAME":"STARLINK-5488","OBJECT_ID":"2023-094AJ","EPOCH":"2026-03-09T06:10:23.392416","MEAN_MOTION":15.03027168,"ECCENTRICITY":0.00027415,"INCLINATION":43.0024,"RA_OF_ASC_NODE":19.7799,"ARG_OF_PERICENTER":245.5795,"MEAN_ANOMALY":114.4761,"EPHEMERIS_TYPE":0,"CLASSIFICATION_TYPE":"U","NORAD_CAT_ID":57250,"ELEMENT_SET_NO":999,"REV_AT_EPOCH":14720,"BSTAR":0.0043847897,"MEAN_MOTION_DOT":0.00060325,"MEAN_MOTION_DDOT":0}]
